[{"OBJECT_NAME":"STARLINK-3988","OBJECT_ID":"2022-052AD","EPOCH":"2026-03-09T22:12:32.080320","MEAN_MOTION":15.0883623,"ECCENTRICITY":0.00013961,"INCLINATION":53.2177,"RA_OF_ASC_NODE":268.0666,"ARG_OF_PERICENTER":96.7561,"MEAN_ANOMALY":263.359,"EPHEMERIS_TYPE":0,"CLASSIFICATION_TYPE":"U","NORAD_CAT_ID":52625,"ELEMENT_SET_NO":999,"REV_AT_EPOCH":21102,"BSTAR":-5.548616e-6,"MEAN_MOTION_DOT":-3.76e-6,"MEAN_MOTION_DDOT":0},{"OBJECT_NAME":"DELTA 1 DEB","OBJECT_ID":"1977-065CP","EPOCH":"2026-03-09T17:31:47.793792","MEAN_MOTION":13.76448417,"ECCENTRICITY":0.06350814,"INCLINATION":29.0588,"RA_OF_ASC_NODE":99.4009,"ARG_OF_PERICENTER":346.601,"MEAN_ANOMALY":11.8386,"EPHEMERIS_TYPE":0,"CLASSIFICATION_TYPE":"U","NORAD_CAT_ID":10262,"ELEMENT_SET_NO":999,"REV_AT_EPOCH":39254,"BSTAR":0.00092776054,"MEAN_MOTION_DOT":4.395e-5,"MEAN_MOTION_DDOT":0}]
